[{"OBJECT_NAME":"STARLINK-5367","OBJECT_ID":"2023-015BE","EPOCH":"2026-03-09T22:00:01.999584","MEAN_MOTION":15.08841276,"ECCENTRICITY":0.00017679,"INCLINATION":42.9996,"RA_OF_ASC_NODE":337.108,"ARG_OF_PERICENTER":269.051,"MEAN_ANOMALY":156.2561,"EPHEMERIS_TYPE":0,"CLASSIFICATION_TYPE":"U","NORAD_CAT_ID":55501,"ELEMENT_SET_NO":999,"REV_AT_EPOCH":578,"BSTAR":0.00075503686,"MEAN_MOTION_DOT":0.00011894,"MEAN_MOTION_DDOT":0},{"OBJECT_NAME":"FENGYUN 1C DEB","OBJECT_ID":"1999-025QK","EPOCH":"2026-03-09T09:38:35.752416","MEAN_MOTION":15.21777611,"ECCENTRICITY":0.00584989,"INCLINATION":98.8236,"RA_OF_ASC_NODE":15.4163,"ARG_OF_PERICENTER":235.7553,"MEAN_ANOMALY":123.8129,"EPHEMERIS_TYPE":0,"CLASSIFICATION_TYPE":"U","NORAD_CAT_ID":30082,"ELEMENT_SET_NO":999,"REV_AT_EPOCH":2608,"BSTAR":0.001566847,"MEAN_MOTION_DOT":0.00037313,"MEAN_MOTION_DDOT":0}]
